[{"OBJECT_NAME":"STARLINK-32412","OBJECT_ID":"2024-193V","EPOCH":"2026-03-09T08:49:06.450528","MEAN_MOTION":15.30208553,"ECCENTRICITY":0.00013908,"INCLINATION":53.1592,"RA_OF_ASC_NODE":92.7577,"ARG_OF_PERICENTER":103.1881,"MEAN_ANOMALY":256.9275,"EPHEMERIS_TYPE":0,"CLASSIFICATION_TYPE":"U","NORAD_CAT_ID":61680,"ELEMENT_SET_NO":999,"REV_AT_EPOCH":7647,"BSTAR":0.00015131734,"MEAN_MOTION_DOT":4.126e-5,"MEAN_MOTION_DDOT":0},{"OBJECT_NAME":"GEOSCAN 3 (RS92S3)","OBJECT_ID":"2025-155T","EPOCH":"2026-03-09T22:52:10.587648","MEAN_MOTION":15.31696739,"ECCENTRICITY":0.00068078,"INCLINATION":97.4455,"RA_OF_ASC_NODE":37.9971,"ARG_OF_PERICENTER":154.1387,"MEAN_ANOMALY":206.0196,"EPHEMERIS_TYPE":0,"CLASSIFICATION_TYPE":"U","NORAD_CAT_ID":64893,"ELEMENT_SET_NO":999,"REV_AT_EPOCH":6564,"BSTAR":0.00078414081,"MEAN_MOTION_DOT":0.00023985,"MEAN_MOTION_DDOT":0}]
